KUIPER-00027            
1 63740U 25088S   26017.87779345  .00000770  00000+0  13001-3 0  9990
2 63740  51.9023 320.2692 0004093  16.7407 343.3690 14.79976272 40092
KUIPER-00028            
1 63741U 25088T   26017.55889633  .00001719  00000+0  25474-3 0  9999
2 63741  51.9021 319.6670 0004549  18.8121 341.3009 14.79899183 40481
KUIPER-00029            
1 63742U 25088U   26017.81419317 -.00002698  00000+0 -32505-3 0  9999
2 63742  51.9059 316.5923 0000408  74.6513 285.4495 14.79927483 40072
KUIPER-00030            
1 63743U 25088V   26017.59172907  .00004619  00000+0  63404-3 0  9991
2 63743  51.9024 336.4982 0012341 263.6246  96.3311 14.79939081 40065
KUIPER-00031            
1 63744U 25088W   26017.53762522  .00003059  00000+0  42874-3 0  9999
2 63744  51.9018 322.7947 0002884 334.6415  25.4406 14.80078842 39962
KUIPER-00032            
1 63745U 25088X   26017.98420115  .00014479  00000+0  43267-3 0  9993
2 63745  51.8709 268.9158 0002584 306.7112  53.3636 15.34821339 41757
KUIPER-00033            
1 63746U 25088Y   26017.91171673  .00057676  00000+0  75466-2 0  9990
2 63746  51.9035 351.1444 0001218  54.3069 305.8007 14.79839039 40080
KUIPER-00034            
1 63747U 25088Z   26017.81680749 -.00000583  00000+0 -47430-4 0  9998
2 63747  51.9038 314.0773 0001545  52.0412 308.0690 14.79943738 40273
